[{"OBJECT_NAME":"DUPLEX","OBJECT_ID":"1998-067XS","EPOCH":"2026-03-29T22:24:55.678464","MEAN_MOTION":15.57577255,"ECCENTRICITY":0.00030655,"INCLINATION":51.6302,"RA_OF_ASC_NODE":328.0933,"ARG_OF_PERICENTER":205.1943,"MEAN_ANOMALY":154.89,"EPHEMERIS_TYPE":0,"CLASSIFICATION_TYPE":"U","NORAD_CAT_ID":66906,"ELEMENT_SET_NO":999,"REV_AT_EPOCH":1828,"BSTAR":0.00049191105,"MEAN_MOTION_DOT":0.00036667,"MEAN_MOTION_DDOT":0},{"OBJECT_NAME":"ISS OBJECT XT","OBJECT_ID":"1998-067XT","EPOCH":"2026-03-30T08:36:14.686848","MEAN_MOTION":15.77137224,"ECCENTRICITY":0.00062627,"INCLINATION":51.6238,"RA_OF_ASC_NODE":319.6397,"ARG_OF_PERICENTER":214.5575,"MEAN_ANOMALY":145.5019,"EPHEMERIS_TYPE":0,"CLASSIFICATION_TYPE":"U","NORAD_CAT_ID":66907,"ELEMENT_SET_NO":999,"REV_AT_EPOCH":1843,"BSTAR":0.0015407861,"MEAN_MOTION_DOT":0.00264942,"MEAN_MOTION_DDOT":0},{"OBJECT_NAME":"ISS OBJECT XU","OBJECT_ID":"1998-067XU","EPOCH":"2026-03-30T00:54:15.502752","MEAN_MOTION":15.77231369,"ECCENTRICITY":0.0006488,"INCLINATION":51.6244,"RA_OF_ASC_NODE":321.2426,"ARG_OF_PERICENTER":211.6504,"MEAN_ANOMALY":148.4107,"EPHEMERIS_TYPE":0,"CLASSIFICATION_TYPE":"U","NORAD_CAT_ID":66908,"ELEMENT_SET_NO":999,"REV_AT_EPOCH":1838,"BSTAR":0.0015861079,"MEAN_MOTION_DOT":0.00274217,"MEAN_MOTION_DDOT":0},{"OBJECT_NAME":"SILVERSAT","OBJECT_ID":"1998-067XV","EPOCH":"2026-03-30T14:50:56.153472","MEAN_MOTION":15.83247741,"ECCENTRICITY":0.00075822,"INCLINATION":51.6205,"RA_OF_ASC_NODE":316.8575,"ARG_OF_PERICENTER":222.6544,"MEAN_ANOMALY":137.3871,"EPHEMERIS_TYPE":0,"CLASSIFICATION_TYPE":"U","NORAD_CAT_ID":66909,"ELEMENT_SET_NO":999,"REV_AT_EPOCH":1849,"BSTAR":0.0017865404,"MEAN_MOTION_DOT":0.0041376,"MEAN_MOTION_DDOT":0},{"OBJECT_NAME":"ISS OBJECT XW","OBJECT_ID":"1998-067XW","EPOCH":"2026-03-30T08:48:36.662400","MEAN_MOTION":15.75574408,"ECCENTRICITY":0.00066049,"INCLINATION":51.6226,"RA_OF_ASC_NODE":319.6895,"ARG_OF_PERICENTER":211.3054,"MEAN_ANOMALY":148.7553,"EPHEMERIS_TYPE":0,"CLASSIFICATION_TYPE":"U","NORAD_CAT_ID":66910,"ELEMENT_SET_NO":999,"REV_AT_EPOCH":1843,"BSTAR":0.0014122329,"MEAN_MOTION_DOT":0.0022558,"MEAN_MOTION_DDOT":0},{"OBJECT_NAME":"ISS OBJECT XX","OBJECT_ID":"1998-067XX","EPOCH":"2026-03-30T14:46:10.603200","MEAN_MOTION":15.90683797,"ECCENTRICITY":0.00095903,"INCLINATION":51.6173,"RA_OF_ASC_NODE":315.2966,"ARG_OF_PERICENTER":227.6877,"MEAN_ANOMALY":132.3317,"EPHEMERIS_TYPE":0,"CLASSIFICATION_TYPE":"U","NORAD_CAT_ID":66911,"ELEMENT_SET_NO":999,"REV_AT_EPOCH":1850,"BSTAR":0.0020123152,"MEAN_MOTION_DOT":0.00638669,"MEAN_MOTION_DDOT":0.00017111548},{"OBJECT_NAME":"ISS OBJECT XY","OBJECT_ID":"1998-067XY","EPOCH":"2026-03-30T00:08:30.971328","MEAN_MOTION":15.67909669,"ECCENTRICITY":0.00045094,"INCLINATION":51.6265,"RA_OF_ASC_NODE":324.061,"ARG_OF_PERICENTER":207.7928,"MEAN_ANOMALY":152.2828,"EPHEMERIS_TYPE":0,"CLASSIFICATION_TYPE":"U","NORAD_CAT_ID":66912,"ELEMENT_SET_NO":999,"REV_AT_EPOCH":1833,"BSTAR":0.0011880079,"MEAN_MOTION_DOT":0.00135548,"MEAN_MOTION_DDOT":0},{"OBJECT_NAME":"KNACKSAT-2","OBJECT_ID":"1998-067XZ","EPOCH":"2026-03-30T09:18:24.907392","MEAN_MOTION":15.53571825,"ECCENTRICITY":0.00101244,"INCLINATION":51.6325,"RA_OF_ASC_NODE":328.8747,"ARG_OF_PERICENTER":261.2248,"MEAN_ANOMALY":98.7596,"EPHEMERIS_TYPE":0,"CLASSIFICATION_TYPE":"U","NORAD_CAT_ID":67683,"ELEMENT_SET_NO":999,"REV_AT_EPOCH":800,"BSTAR":0.00076650335,"MEAN_MOTION_DOT":0.00049653,"MEAN_MOTION_DDOT":0},{"OBJECT_NAME":"CORAL","OBJECT_ID":"1998-067YA","EPOCH":"2026-03-30T09:07:00.963264","MEAN_MOTION":15.57905206,"ECCENTRICITY":0.00128804,"INCLINATION":51.6302,"RA_OF_ASC_NODE":328.0728,"ARG_OF_PERICENTER":250.8406,"MEAN_ANOMALY":109.1193,"EPHEMERIS_TYPE":0,"CLASSIFICATION_TYPE":"U","NORAD_CAT_ID":67684,"ELEMENT_SET_NO":999,"REV_AT_EPOCH":801,"BSTAR":0.0013866653,"MEAN_MOTION_DOT":0.00106857,"MEAN_MOTION_DDOT":0},{"OBJECT_NAME":"GXIBA-1","OBJECT_ID":"1998-067YB","EPOCH":"2026-03-30T01:20:14.376480","MEAN_MOTION":15.54098207,"ECCENTRICITY":0.00120141,"INCLINATION":51.6323,"RA_OF_ASC_NODE":330.4074,"ARG_OF_PERICENTER":256.8362,"MEAN_ANOMALY":103.1288,"EPHEMERIS_TYPE":0,"CLASSIFICATION_TYPE":"U","NORAD_CAT_ID":67685,"ELEMENT_SET_NO":999,"REV_AT_EPOCH":795,"BSTAR":0.00087009191,"MEAN_MOTION_DOT":0.00057636,"MEAN_MOTION_DDOT":0},{"OBJECT_NAME":"UITMSAT-2","OBJECT_ID":"1998-067YC","EPOCH":"2026-03-30T00:58:06.542400","MEAN_MOTION":15.55077953,"ECCENTRICITY":0.00091679,"INCLINATION":51.6316,"RA_OF_ASC_NODE":330.3073,"ARG_OF_PERICENTER":228.7087,"MEAN_ANOMALY":131.3115,"EPHEMERIS_TYPE":0,"CLASSIFICATION_TYPE":"U","NORAD_CAT_ID":67686,"ELEMENT_SET_NO":999,"REV_AT_EPOCH":795,"BSTAR":0.0010299327,"MEAN_MOTION_DOT":0.0007085,"MEAN_MOTION_DDOT":0},{"OBJECT_NAME":"HMU-SAT2","OBJECT_ID":"1998-067YD","EPOCH":"2026-03-30T09:10:40.875456","MEAN_MOTION":15.53872979,"ECCENTRICITY":0.00086295,"INCLINATION":51.6326,"RA_OF_ASC_NODE":328.8427,"ARG_OF_PERICENTER":233.2686,"MEAN_ANOMALY":126.7513,"EPHEMERIS_TYPE":0,"CLASSIFICATION_TYPE":"U","NORAD_CAT_ID":67687,"ELEMENT_SET_NO":999,"REV_AT_EPOCH":792,"BSTAR":0.00083210811,"MEAN_MOTION_DOT":0.00054544,"MEAN_MOTION_DDOT":0},{"OBJECT_NAME":"LEOPARD","OBJECT_ID":"1998-067YE","EPOCH":"2026-03-30T08:51:01.270080","MEAN_MOTION":15.54667702,"ECCENTRICITY":0.00088317,"INCLINATION":51.6321,"RA_OF_ASC_NODE":328.7513,"ARG_OF_PERICENTER":230.5203,"MEAN_ANOMALY":129.5007,"EPHEMERIS_TYPE":0,"CLASSIFICATION_TYPE":"U","NORAD_CAT_ID":67688,"ELEMENT_SET_NO":999,"REV_AT_EPOCH":792,"BSTAR":0.0009278276,"MEAN_MOTION_DOT":0.00062747,"MEAN_MOTION_DDOT":0},{"OBJECT_NAME":"CREW DRAGON 12","OBJECT_ID":"2026-031A","EPOCH":"2026-03-30T08:36:35.879904","MEAN_MOTION":15.486529,"ECCENTRICITY":0.00062124,"INCLINATION":51.6343,"RA_OF_ASC_NODE":330.1789,"ARG_OF_PERICENTER":250.3608,"MEAN_ANOMALY":109.671,"EPHEMERIS_TYPE":0,"CLASSIFICATION_TYPE":"U","NORAD_CAT_ID":67796,"ELEMENT_SET_NO":999,"REV_AT_EPOCH":55949,"BSTAR":0.00022375818,"MEAN_MOTION_DOT":0.00011753,"MEAN_MOTION_DDOT":0},{"OBJECT_NAME":"PROGRESS-MS 33","OBJECT_ID":"2026-058A","EPOCH":"2026-03-30T08:36:35.879904","MEAN_MOTION":15.486529,"ECCENTRICITY":0.00062124,"INCLINATION":51.6343,"RA_OF_ASC_NODE":330.1789,"ARG_OF_PERICENTER":250.3608,"MEAN_ANOMALY":109.671,"EPHEMERIS_TYPE":0,"CLASSIFICATION_TYPE":"U","NORAD_CAT_ID":68319,"ELEMENT_SET_NO":999,"REV_AT_EPOCH":70,"BSTAR":0.00022375818,"MEAN_MOTION_DOT":0.00011753,"MEAN_MOTION_DDOT":0}]
